OBJECT_NAME,OBJECT_ID,EPOCH,MEAN_MOTION,ECCENTRICITY,INCLINATION,RA_OF_ASC_NODE,ARG_OF_PERICENTER,MEAN_ANOMALY,EPHEMERIS_TYPE,CLASSIFICATION_TYPE,NORAD_CAT_ID,ELEMENT_SET_NO,REV_AT_EPOCH,BSTAR,MEAN_MOTION_DOT,MEAN_MOTION_DDOT
VICTUS HAZE PUMA,2026-142A,2026-07-16T07:09:16.524288,15.20227445,.0022441,97.4461,94.5882,264.2185,95.6491,0,U,69646,999,409,.84764E-4,.1778E-4,0
HOKUSHIN-1,1998-067YH,2026-07-15T20:56:50.883360,15.51028714,.00061611,51.6318,157.8714,333.0440,27.0228,0,U,69648,999,410,.27864143E-3,.16074E-3,0
STARLINK-37656,2026-143A,2026-07-16T02:53:52.908000,15.49190072,.0000715,97.2830,241.0108,103.9461,256.1870,0,U,69649,999,502,.61868E-3,.33702E-3,0
STARLINK-37646,2026-143B,2026-07-16T02:40:44.411232,15.49194442,.0001743,97.2831,241.1790,88.7671,271.3780,0,U,69650,999,503,.72193E-3,.39378E-3,0
STARLINK-37749,2026-143C,2026-07-16T02:50:38.391360,15.49186513,.0000521,97.2838,241.1683,316.8129,43.3082,0,U,69651,999,503,.39318E-3,.21349E-3,0
STARLINK-37819,2026-143D,2026-07-16T01:34:17.562720,15.49227529,.000113,97.2844,241.0907,101.1591,258.9787,0,U,69652,999,502,.77675E-3,.4244E-3,0
STARLINK-37729,2026-143E,2026-07-16T04:00:01.998720,15.82708084,.0001343,97.2814,241.6351,78.2277,84.4863,0,U,69653,999,511,-.74609E-2,-.1365587E-1,0
STARLINK-37838,2026-143F,2026-07-16T02:24:40.296096,15.49201299,.0001409,97.2818,241.1933,90.4768,269.6644,0,U,69654,999,503,.54676E-3,.29772E-3,0
STARLINK-37884,2026-143G,2026-07-16T01:46:19.631712,15.49226068,.0002502,97.2837,241.0780,114.9377,245.2134,0,U,69655,999,502,.65692E-3,.35849E-3,0
STARLINK-37876,2026-143H,2026-07-16T02:25:17.652000,15.49199787,.000152,97.2810,241.1924,90.7265,269.4161,0,U,69656,999,496,.65873E-3,.35914E-3,0
STARLINK-37784,2026-143J,2026-07-16T03:08:36.494880,15.49217063,.0000955,97.2825,241.1519,108.5393,251.5962,0,U,69657,999,496,.42719E-3,.23234E-3,0
STARLINK-37851,2026-143K,2026-07-16T02:28:23.589984,15.49199367,.0000677,97.2821,241.1890,354.6764,5.4480,0,U,69658,999,496,.52381E-3,.28511E-3,0
STARLINK-37229,2026-143L,2026-07-16T02:56:28.161024,15.49194568,.0000954,97.2827,241.1627,321.6112,38.5071,0,U,69659,999,497,.52362E-3,.28496E-3,0
STARLINK-37556,2026-143M,2026-07-16T04:00:01.998720,15.36986058,.0001306,97.2845,241.2248,73.0197,198.4312,0,U,69660,999,505,-.8283E-3,-.29888E-3,0
STARLINK-37867,2026-143N,2026-07-15T01:40:34.427424,15.49204020,.00015014,97.2847,240.1489,80.0224,280.1196,0,U,69661,999,480,.28168305E-3,.15267E-3,0
STARLINK-37852,2026-143P,2026-07-16T01:41:29.479776,15.49219212,.0002392,97.2846,241.0829,108.6786,251.4725,0,U,69662,999,495,.49498E-3,.26952E-3,0
STARLINK-37554,2026-143Q,2026-07-16T04:16:04.704672,15.47306591,.0001686,97.2855,241.2424,89.6584,270.4859,0,U,69663,999,498,-.20141E-1,-.941711E-2,0
STARLINK-37830,2026-143R,2026-07-16T03:04:10.128000,15.49204895,.0001183,97.2838,241.1564,87.3088,272.8299,0,U,69664,999,496,.19641E-3,.10612E-3,0
STARLINK-37837,2026-143S,2026-07-16T04:00:01.998720,15.36996041,.0001024,97.2840,241.2140,64.7048,190.7868,0,U,69665,999,501,-.47954E-3,-.1737E-3,0
STARLINK-37943,2026-143T,2026-07-16T03:03:24.032736,15.49200111,.0001257,97.2838,241.1571,88.4415,271.6981,0,U,69666,999,496,.79563E-4,.4241E-4,0
STARLINK-37941,2026-143U,2026-07-16T02:45:13.193856,15.49189977,.0001812,97.2834,241.1727,348.8902,11.2309,0,U,69667,999,496,.59772E-3,.32554E-3,0
STARLINK-37930,2026-143V,2026-07-16T02:44:28.487040,15.49199260,.000052,97.2848,241.1754,91.5594,268.5717,0,U,69668,999,496,.46709E-3,.25404E-3,0
STARLINK-37945,2026-143W,2026-07-16T02:25:52.235328,15.49189970,.0001611,97.2826,241.1919,91.8320,268.3116,0,U,69669,999,496,.66902E-3,.36466E-3,0
STARLINK-37948,2026-143X,2026-07-16T02:01:50.043936,15.49213825,.000114,97.2853,241.0652,122.0489,238.0873,0,U,69670,999,495,.29184E-3,.15827E-3,0
STARLINK-37949,2026-143Y,2026-07-16T02:59:42.923040,15.49201171,.000028,97.2839,241.1610,90.1234,270.0049,0,U,69671,999,496,.2418E-3,.13087E-3,0
STARLINK-37946,2026-143Z,2026-07-16T02:39:39.123936,15.49197939,.0001024,97.2823,241.1793,85.0485,275.0883,0,U,69672,999,496,.75537E-3,.4122E-3,0
TJS-26A,2026-144A,2026-07-12T07:10:37.543296,1.00274367,.0004208,6.9538,323.2302,347.4913,194.6526,0,U,69674,999,19,0,-.341E-5,0
CZ-7A R/B,2026-144B,2026-07-15T20:13:52.323744,2.60918422,.7085488,19.4424,314.7150,197.2977,113.4770,0,U,69675,999,58,.11873E-2,.1091745E-1,.34908E-4
STARLINK-38005,2026-145A,2026-07-16T03:06:39.555072,15.75168377,.0001439,97.2835,44.0097,72.8316,287.3107,0,U,69677,999,332,.90197E-3,.136447E-2,0
STARLINK-38009,2026-145B,2026-07-16T03:04:06.955392,15.75213341,.0001408,97.2838,44.0126,85.5471,274.5955,0,U,69678,999,332,.44046E-3,.66145E-3,0
