VICTUS HAZE PUMA        
1 69646U 26142A   26197.29810792  .00001778  00000+0  84764-4 0  9994
2 69646  97.4461  94.5882 0022441 264.2185  95.6491 15.20227445  4090
HOKUSHIN-1              
1 69648U 98067YH  26196.87281115  .00016074  00000+0  27864-3 0  9997
2 69648  51.6318 157.8714 0006161 333.0440  27.0228 15.51028714  4103
STARLINK-37656          
1 69649U 26143A   26197.12075125  .00033702  00000+0  61868-3 0  9994
2 69649  97.2830 241.0108 0000715 103.9461 256.1870 15.49190072  5022
STARLINK-37646          
1 69650U 26143B   26197.11162513  .00039378  00000+0  72193-3 0  9991
2 69650  97.2831 241.1790 0001743  88.7671 271.3780 15.49194442  5033
STARLINK-37749          
1 69651U 26143C   26197.11849990  .00021349  00000+0  39318-3 0  9994
2 69651  97.2838 241.1683 0000521 316.8129  43.3082 15.49186513  5030
STARLINK-37819          
1 69652U 26143D   26197.06548105  .00042440  00000+0  77675-3 0  9996
2 69652  97.2844 241.0907 0001130 101.1591 258.9787 15.49227529  5029
STARLINK-37729          
1 69653U 26143E   26197.16668980 -.01365587  00000+0 -74609-2 0  9998
2 69653  97.2814 241.6351 0001343  78.2277  84.4863 15.82708084  5111
STARLINK-37838          
1 69654U 26143F   26197.10046639  .00029772  00000+0  54676-3 0  9997
2 69654  97.2818 241.1933 0001409  90.4768 269.6644 15.49201299  5035
STARLINK-37884          
1 69655U 26143G   26197.07383833  .00035849  00000+0  65692-3 0  9996
2 69655  97.2837 241.0780 0002502 114.9377 245.2134 15.49226068  5023
STARLINK-37876          
1 69656U 26143H   26197.10089875  .00035914  00000+0  65873-3 0  9994
2 69656  97.2810 241.1924 0001520  90.7265 269.4161 15.49199787  4969
STARLINK-37784          
1 69657U 26143J   26197.13097795  .00023234  00000+0  42719-3 0  9994
2 69657  97.2825 241.1519 0000955 108.5393 251.5962 15.49217063  4966
STARLINK-37851          
1 69658U 26143K   26197.10305081  .00028511  00000+0  52381-3 0  9991
2 69658  97.2821 241.1890 0000677 354.6764   5.4480 15.49199367  4969
STARLINK-37229          
1 69659U 26143L   26197.12254816  .00028496  00000+0  52362-3 0  9994
2 69659  97.2827 241.1627 0000954 321.6112  38.5071 15.49194568  4975
STARLINK-37556          
1 69660U 26143M   26197.16668980 -.00029888  00000+0 -82830-3 0  9992
2 69660  97.2845 241.2248 0001306  73.0197 198.4312 15.36986058  5053
STARLINK-37867          
1 69661U 26143N   26196.06984291  .00015267  00000+0  28168-3 0  9995
2 69661  97.2847 240.1489 0001501  80.0224 280.1196 15.49204020  4804
STARLINK-37852          
1 69662U 26143P   26197.07048009  .00026952  00000+0  49498-3 0  9998
2 69662  97.2846 241.0829 0002392 108.6786 251.4725 15.49219212  4955
STARLINK-37554          
1 69663U 26143Q   26197.17783223 -.00941711  00000+0 -20141-1 0  9997
2 69663  97.2855 241.2424 0001686  89.6584 270.4859 15.47306591  4985
STARLINK-37830          
1 69664U 26143R   26197.12789500  .00010612  00000+0  19641-3 0  9997
2 69664  97.2838 241.1564 0001183  87.3088 272.8299 15.49204895  4965
STARLINK-37837          
1 69665U 26143S   26197.16668980 -.00017370  00000+0 -47954-3 0  9998
2 69665  97.2840 241.2140 0001024  64.7048 190.7868 15.36996041  5013
STARLINK-37943          
1 69666U 26143T   26197.12736149  .00004241  00000+0  79563-4 0  9991
2 69666  97.2838 241.1571 0001257  88.4415 271.6981 15.49200111  4965
STARLINK-37941          
1 69667U 26143U   26197.11473604  .00032554  00000+0  59772-3 0  9992
2 69667  97.2834 241.1727 0001812 348.8902  11.2309 15.49189977  4964
STARLINK-37930          
1 69668U 26143V   26197.11421860  .00025404  00000+0  46709-3 0  9992
2 69668  97.2848 241.1754 0000520  91.5594 268.5717 15.49199260  4960
STARLINK-37945          
1 69669U 26143W   26197.10129902  .00036466  00000+0  66902-3 0  9991
2 69669  97.2826 241.1919 0001611  91.8320 268.3116 15.49189970  4960
STARLINK-37948          
1 69670U 26143X   26197.08460699  .00015827  00000+0  29184-3 0  9990
2 69670  97.2853 241.0652 0001140 122.0489 238.0873 15.49213825  4955
STARLINK-37949          
1 69671U 26143Y   26197.12480235  .00013087  00000+0  24180-3 0  9991
2 69671  97.2839 241.1610 0000280  90.1234 270.0049 15.49201171  4965
STARLINK-37946          
1 69672U 26143Z   26197.11086949  .00041220  00000+0  75537-3 0  9997
2 69672  97.2823 241.1793 0001024  85.0485 275.0883 15.49197939  4966
TJS-26A                 
1 69674U 26144A   26193.29904564 -.00000341  00000+0  00000+0 0  9996
2 69674   6.9538 323.2302 0004208 347.4913 194.6526  1.00274367   198
CZ-7A R/B               
1 69675U 26144B   26196.84296671  .01091745  34908-4  11873-2 0  9994
2 69675  19.4424 314.7150 7085488 197.2977 113.4770  2.60918422   582
STARLINK-38005          
1 69677U 26145A   26197.12962448  .00136447  00000+0  90197-3 0  9997
2 69677  97.2835  44.0097 0001439  72.8316 287.3107 15.75168377  3325
STARLINK-38009          
1 69678U 26145B   26197.12785828  .00066145  00000+0  44046-3 0  9992
2 69678  97.2838  44.0126 0001408  85.5471 274.5955 15.75213341  3322
